STARLINK-36708          
1 67713U 26025W   26047.58335648 -.01301808  55408-3 -21451-2 0  9993
2 67713  97.2755 157.9849 0001265  67.5831 111.2417 16.03223415  2510
STARLINK-36702          
1 67714U 26025X   26047.58335648 -.01312225  56097-3 -21885-2 0  9995
2 67714  97.2755 157.9834 0001432  60.4400 114.7601 16.03019648  2249
STARLINK-36718          
1 67715U 26025Y   26047.58335648 -.01286766  54543-3 -20594-2 0  9996
2 67715  97.2756 157.9889 0001228  69.0114 118.3231 16.03715230  2453
STARLINK-36715          
1 67716U 26025Z   26047.58335648 -.01286922  54406-3 -20883-2 0  9990
2 67716  97.2753 157.9871 0001348  64.4706 118.8551 16.03481583  2519
STARLINK-36385          
1 67717U 26025AA  26047.58335648 -.01320973  56628-3 -22354-2 0  9999
2 67717  97.2758 157.9818 0001454  59.2976 111.5848 16.02772983  2510
CZ-2F DEB               
1 67718U 26024E   26047.58463818  .00257223  00000+0  51635-2 0  9997
2 67718  50.3137 121.7428 0262288 197.0635 162.1375 15.16281057  1422
CZ-2F DEB               
1 67719U 26024F   26047.56877769  .00188549  00000+0  48421-2 0  9993
2 67719  49.7910 123.0580 0334984 186.8707 172.7580 14.96973421  1073
CZ-2F DEB               
1 67720U 26024G   26047.58557308  .00191563  00000+0  50464-2 0  9991
2 67720  49.8302 123.1576 0345713 183.5496 176.2984 14.94307716  1396
2026-027A               
1 67746U 26027A   26047.60244822  .00008717  00000+0  44034-3 0  9994
2 67746  97.4877 176.8486 0009143 273.6457  86.3731 15.17285459   662
2026-027B               
1 67747U 26027B   26047.60215931  .00008681  00000+0  43723-3 0  9998
2 67747  97.4872 176.8486 0009315 276.3111  83.7062 15.17386853   664
2027-027C               
1 67748U 27027C   26047.60175019  .00005624  00000+0  28349-3 0  9993
2 67748  97.4883 176.8499 0009766 279.5040  80.5090 15.17517126   662
2026-027D               
1 67749U 26027D   26047.46948150  .00009835  00000+0  49080-3 0  9994
2 67749  97.4878 176.7198 0009565 284.3017  75.7154 15.17674967   593
