CCSDS_OMM_VERS = 2.0
CREATION_DATE  = 
ORIGINATOR     = 

OBJECT_NAME    = STARLINK-36708
OBJECT_ID      = 2026-025W
CENTER_NAME    = EARTH
REF_FRAME      = TEME
TIME_SYSTEM    = UTC
MEAN_ELEMENT_THEORY = SGP/SGP4

EPOCH          = 2026-02-16T14:00:01.999872
MEAN_MOTION    = 16.03223415
ECCENTRICITY   = .0001265
INCLINATION    = 97.2755
RA_OF_ASC_NODE = 157.9849
ARG_OF_PERICENTER = 67.5831
MEAN_ANOMALY   = 111.2417

EPHEMERIS_TYPE = 0
CLASSIFICATION_TYPE = U
NORAD_CAT_ID   = 67713
ELEMENT_SET_NO = 999
REV_AT_EPOCH   = 251
BSTAR          = -.21451412E-2
MEAN_MOTION_DOT = -.1301808E-1
MEAN_MOTION_DDOT = .55407693E-3

CCSDS_OMM_VERS = 2.0
CREATION_DATE  = 
ORIGINATOR     = 

OBJECT_NAME    = STARLINK-36702
OBJECT_ID      = 2026-025X
CENTER_NAME    = EARTH
REF_FRAME      = TEME
TIME_SYSTEM    = UTC
MEAN_ELEMENT_THEORY = SGP/SGP4

EPOCH          = 2026-02-16T14:00:01.999872
MEAN_MOTION    = 16.03019648
ECCENTRICITY   = .00014321
INCLINATION    = 97.2755
RA_OF_ASC_NODE = 157.9834
ARG_OF_PERICENTER = 60.4400
MEAN_ANOMALY   = 114.7601

EPHEMERIS_TYPE = 0
CLASSIFICATION_TYPE = U
NORAD_CAT_ID   = 67714
ELEMENT_SET_NO = 999
REV_AT_EPOCH   = 224
BSTAR          = -.21885085E-2
MEAN_MOTION_DOT = -.1312225E-1
MEAN_MOTION_DDOT = .56097265E-3

CCSDS_OMM_VERS = 2.0
CREATION_DATE  = 
ORIGINATOR     = 

OBJECT_NAME    = STARLINK-36718
OBJECT_ID      = 2026-025Y
CENTER_NAME    = EARTH
REF_FRAME      = TEME
TIME_SYSTEM    = UTC
MEAN_ELEMENT_THEORY = SGP/SGP4

EPOCH          = 2026-02-16T14:00:01.999872
MEAN_MOTION    = 16.03715230
ECCENTRICITY   = .00012281
INCLINATION    = 97.2756
RA_OF_ASC_NODE = 157.9889
ARG_OF_PERICENTER = 69.0114
MEAN_ANOMALY   = 118.3231

EPHEMERIS_TYPE = 0
CLASSIFICATION_TYPE = U
NORAD_CAT_ID   = 67715
ELEMENT_SET_NO = 999
REV_AT_EPOCH   = 245
BSTAR          = -.20593661E-2
MEAN_MOTION_DOT = -.1286766E-1
MEAN_MOTION_DDOT = .54543454E-3

CCSDS_OMM_VERS = 2.0
CREATION_DATE  = 
ORIGINATOR     = 

OBJECT_NAME    = STARLINK-36715
OBJECT_ID      = 2026-025Z
CENTER_NAME    = EARTH
REF_FRAME      = TEME
TIME_SYSTEM    = UTC
MEAN_ELEMENT_THEORY = SGP/SGP4

EPOCH          = 2026-02-16T14:00:01.999872
MEAN_MOTION    = 16.03481583
ECCENTRICITY   = .00013489
INCLINATION    = 97.2753
RA_OF_ASC_NODE = 157.9871
ARG_OF_PERICENTER = 64.4706
MEAN_ANOMALY   = 118.8551

EPHEMERIS_TYPE = 0
CLASSIFICATION_TYPE = U
NORAD_CAT_ID   = 67716
ELEMENT_SET_NO = 999
REV_AT_EPOCH   = 251
BSTAR          = -.20882608E-2
MEAN_MOTION_DOT = -.1286922E-1
MEAN_MOTION_DDOT = .54405671E-3

CCSDS_OMM_VERS = 2.0
CREATION_DATE  = 
ORIGINATOR     = 

OBJECT_NAME    = STARLINK-36385
OBJECT_ID      = 2026-025AA
CENTER_NAME    = EARTH
REF_FRAME      = TEME
TIME_SYSTEM    = UTC
MEAN_ELEMENT_THEORY = SGP/SGP4

EPOCH          = 2026-02-16T14:00:01.999872
MEAN_MOTION    = 16.02772983
ECCENTRICITY   = .00014541
INCLINATION    = 97.2758
RA_OF_ASC_NODE = 157.9818
ARG_OF_PERICENTER = 59.2976
MEAN_ANOMALY   = 111.5848

EPHEMERIS_TYPE = 0
CLASSIFICATION_TYPE = U
NORAD_CAT_ID   = 67717
ELEMENT_SET_NO = 999
REV_AT_EPOCH   = 251
BSTAR          = -.22353551E-2
MEAN_MOTION_DOT = -.1320973E-1
MEAN_MOTION_DDOT = .56628261E-3

CCSDS_OMM_VERS = 2.0
CREATION_DATE  = 
ORIGINATOR     = 

OBJECT_NAME    = CZ-2F DEB
OBJECT_ID      = 2026-024E
CENTER_NAME    = EARTH
REF_FRAME      = TEME
TIME_SYSTEM    = UTC
MEAN_ELEMENT_THEORY = SGP/SGP4

EPOCH          = 2026-02-16T14:01:52.738752
MEAN_MOTION    = 15.16281057
ECCENTRICITY   = .02622886
INCLINATION    = 50.3137
RA_OF_ASC_NODE = 121.7428
ARG_OF_PERICENTER = 197.0635
MEAN_ANOMALY   = 162.1375

EPHEMERIS_TYPE = 0
CLASSIFICATION_TYPE = U
NORAD_CAT_ID   = 67718
ELEMENT_SET_NO = 999
REV_AT_EPOCH   = 142
BSTAR          = .51635432E-2
MEAN_MOTION_DOT = .257223E-2
MEAN_MOTION_DDOT = 0

CCSDS_OMM_VERS = 2.0
CREATION_DATE  = 
ORIGINATOR     = 

OBJECT_NAME    = CZ-2F DEB
OBJECT_ID      = 2026-024F
CENTER_NAME    = EARTH
REF_FRAME      = TEME
TIME_SYSTEM    = UTC
MEAN_ELEMENT_THEORY = SGP/SGP4

EPOCH          = 2026-02-16T13:39:02.392416
MEAN_MOTION    = 14.96973421
ECCENTRICITY   = .03349845
INCLINATION    = 49.7910
RA_OF_ASC_NODE = 123.0580
ARG_OF_PERICENTER = 186.8707
MEAN_ANOMALY   = 172.7580

EPHEMERIS_TYPE = 0
CLASSIFICATION_TYPE = U
NORAD_CAT_ID   = 67719
ELEMENT_SET_NO = 999
REV_AT_EPOCH   = 107
BSTAR          = .48420509E-2
MEAN_MOTION_DOT = .188549E-2
MEAN_MOTION_DDOT = 0

CCSDS_OMM_VERS = 2.0
CREATION_DATE  = 
ORIGINATOR     = 

OBJECT_NAME    = CZ-2F DEB
OBJECT_ID      = 2026-024G
CENTER_NAME    = EARTH
REF_FRAME      = TEME
TIME_SYSTEM    = UTC
MEAN_ELEMENT_THEORY = SGP/SGP4

EPOCH          = 2026-02-16T14:03:13.514112
MEAN_MOTION    = 14.94307716
ECCENTRICITY   = .03457139
INCLINATION    = 49.8302
RA_OF_ASC_NODE = 123.1576
ARG_OF_PERICENTER = 183.5496
MEAN_ANOMALY   = 176.2984

EPHEMERIS_TYPE = 0
CLASSIFICATION_TYPE = U
NORAD_CAT_ID   = 67720
ELEMENT_SET_NO = 999
REV_AT_EPOCH   = 139
BSTAR          = .50463863E-2
MEAN_MOTION_DOT = .191563E-2
MEAN_MOTION_DDOT = 0

CCSDS_OMM_VERS = 2.0
CREATION_DATE  = 
ORIGINATOR     = 

OBJECT_NAME    = 2026-027A
OBJECT_ID      = 2026-027A
CENTER_NAME    = EARTH
REF_FRAME      = TEME
TIME_SYSTEM    = UTC
MEAN_ELEMENT_THEORY = SGP/SGP4

EPOCH          = 2026-02-16T14:27:31.526208
MEAN_MOTION    = 15.17285459
ECCENTRICITY   = .0009143
INCLINATION    = 97.4877
RA_OF_ASC_NODE = 176.8486
ARG_OF_PERICENTER = 273.6457
MEAN_ANOMALY   = 86.3731

EPHEMERIS_TYPE = 0
CLASSIFICATION_TYPE = U
NORAD_CAT_ID   = 67746
ELEMENT_SET_NO = 999
REV_AT_EPOCH   = 66
BSTAR          = .44034303E-3
MEAN_MOTION_DOT = .8717E-4
MEAN_MOTION_DDOT = 0

CCSDS_OMM_VERS = 2.0
CREATION_DATE  = 
ORIGINATOR     = 

OBJECT_NAME    = 2026-027B
OBJECT_ID      = 2026-027B
CENTER_NAME    = EARTH
REF_FRAME      = TEME
TIME_SYSTEM    = UTC
MEAN_ELEMENT_THEORY = SGP/SGP4

EPOCH          = 2026-02-16T14:27:06.564384
MEAN_MOTION    = 15.17386853
ECCENTRICITY   = .00093152
INCLINATION    = 97.4872
RA_OF_ASC_NODE = 176.8486
ARG_OF_PERICENTER = 276.3111
MEAN_ANOMALY   = 83.7062

EPHEMERIS_TYPE = 0
CLASSIFICATION_TYPE = U
NORAD_CAT_ID   = 67747
ELEMENT_SET_NO = 999
REV_AT_EPOCH   = 66
BSTAR          = .4372314E-3
MEAN_MOTION_DOT = .8681E-4
MEAN_MOTION_DDOT = 0

CCSDS_OMM_VERS = 2.0
CREATION_DATE  = 
ORIGINATOR     = 

OBJECT_NAME    = 2027-027C
OBJECT_ID      = 2027-027C
CENTER_NAME    = EARTH
REF_FRAME      = TEME
TIME_SYSTEM    = UTC
MEAN_ELEMENT_THEORY = SGP/SGP4

EPOCH          = 2026-02-16T14:26:31.216416
MEAN_MOTION    = 15.17517126
ECCENTRICITY   = .00097665
INCLINATION    = 97.4883
RA_OF_ASC_NODE = 176.8499
ARG_OF_PERICENTER = 279.5040
MEAN_ANOMALY   = 80.5090

EPHEMERIS_TYPE = 0
CLASSIFICATION_TYPE = U
NORAD_CAT_ID   = 67748
ELEMENT_SET_NO = 999
REV_AT_EPOCH   = 66
BSTAR          = .28349227E-3
MEAN_MOTION_DOT = .5624E-4
MEAN_MOTION_DDOT = 0

CCSDS_OMM_VERS = 2.0
CREATION_DATE  = 
ORIGINATOR     = 

OBJECT_NAME    = 2026-027D
OBJECT_ID      = 2026-027D
CENTER_NAME    = EARTH
REF_FRAME      = TEME
TIME_SYSTEM    = UTC
MEAN_ELEMENT_THEORY = SGP/SGP4

EPOCH          = 2026-02-16T11:16:03.201600
MEAN_MOTION    = 15.17674967
ECCENTRICITY   = .00095654
INCLINATION    = 97.4878
RA_OF_ASC_NODE = 176.7198
ARG_OF_PERICENTER = 284.3017
MEAN_ANOMALY   = 75.7154

EPHEMERIS_TYPE = 0
CLASSIFICATION_TYPE = U
NORAD_CAT_ID   = 67749
ELEMENT_SET_NO = 999
REV_AT_EPOCH   = 59
BSTAR          = .49079697E-3
MEAN_MOTION_DOT = .9835E-4
MEAN_MOTION_DDOT = 0

